{
"type": "FeatureCollection",
"name": "vulcani_liv_allerta_maplite",
"crs": { "type": "name", "properties": { "name": "urn:ogc:def:crs:OGC:1.3:CRS84" } },
"features": [
{ "type": "Feature", "properties": { "Vulcano": "<a href=\"https://rischi.protezionecivile.gov.it/it/vulcanico/vulcani-italia/campi-flegrei/\" target=\"_blank\" >Campi Flegrei</a>", "Caratteristiche": "I Campi Flegrei sono un’area vulcanica attiva con una struttura detta “caldera”: un’area ribassata di forma quasi circolare che si è formata per effetto di grandi eruzioni esplosive. L’ultima eruzione risale al 1538. Da allora l’area è caratterizzata da fumarole e <a href=\"https://rischi.protezionecivile.gov.it/it/vulcanico/vulcani-italia/campi-flegrei/il-bradisismo-ai-campi-flegrei/\"target=\"_blank\">bradisismo</a>, cioè ripetuti episodi di lenta deformazione del suolo, accompagnati da terremoti.", "livello_allerta": "giallo", "livello_allerta_link": "<a href=\"https://www.protezionecivile.gov.it/static/931a2c8426bbe2ed8b9516e25387c861/20251030-decreto-flegrei-rep-3236-2-def.pdf\" target=\"_blank\" >Giallo</a>", "Comportamenti corretti": "<a href=\"https://www.protezionecivile.gov.it/it/approfondimento/norme-di-comportamento-campi-flegrei/\" target=\"_blank\" >Cosa fare fin da subito/in caso di terremoto da bradisismo/in caso di gas vulcanici/in previsione di un'eruzione vulcanica/durante l'eruzione</a>", "Pianificazione nazionale": "La <a href=\"https://rischi.protezionecivile.gov.it/it/vulcanico/vulcani-italia/campi-flegrei/la-pianificazione-nazionale-di-emergenza-il-rischio-vulcanico-i-campi-flegrei/\" target=\"_blank\" > pianificazione nazionale</a> di protezione civile per il rischio vulcanico ai Campi Flegrei ha definito la <a href=\"https://mappe.protezionecivile.gov.it/it/mappe-e-dashboards-rischi/piano-nazionale-campi-flegrei/\" target=\"_blank\" >zona rossa e la zona gialla</a>, da non confondere con i livelli di allerta previsti per il vulcano." }, "geometry": { "type": "Point", "coordinates": [ 14.166656341189041, 40.833304716283962 ] } },
{ "type": "Feature", "properties": { "Vulcano": "<a href=\"https://rischi.protezionecivile.gov.it/it/vulcanico/vulcani-italia/etna/\" target=\"_blank\" >Etna</a>", "Caratteristiche": "L’Etna è il vulcano emerso più grande d’Europa. Le sue eruzioni sono caratterizzate prevalentemente da attività stromboliana, effusione di colate laviche ed emissioni di ceneri. Possono avvenire dai crateri sommitali o da bocche sui fianchi del vulcano. In genere, l'attività stromboliana interessa l’area intorno alla bocca eruttiva e non rappresenta un rischio per i centri abitati.", "livello_allerta": "giallo", "livello_allerta_link": "<a href=\"https://rischi.protezionecivile.gov.it/static/6d78c59c10fa6c7d4896d75ee9bf98f1/2021-vals-etna-ita.pdf\" target=\"_blank\" >Giallo</a>", "Comportamenti corretti": "<a href=\"https://www.protezionecivile.gov.it/it/approfondimento/in-caso-di-caduta-di-ceneri-vulcaniche/\" target=\"_blank\" >Cosa fare in caso di caduta di ceneri vulcaniche</a>", "Pianificazione nazionale": "" }, "geometry": { "type": "Point", "coordinates": [ 14.997365168497121, 37.756316817370696 ] } },
{ "type": "Feature", "properties": { "Vulcano": "<a href=\"https://rischi.protezionecivile.gov.it/it/vulcanico/vulcani-italia/Stromboli/\" target=\"_blank\" >Stromboli</a>", "Caratteristiche": "L’isola di Stromboli è un vulcano caratterizzato da esplosioni che ricorrono ogni 10-20 minuti, dette “stromboliane”. Tuttavia, possono verificarsi esplosioni più intense e pericolose: “maggiori” e “parossistiche”, oltre che eruzioni effusive. L’attività del vulcano può causare inoltre ulteriori fenomeni pericolosi quali frane, maremoti, incendi e terremoti.", "livello_allerta": "giallo", "livello_allerta_link": "<a href=\"https://rischi.protezionecivile.gov.it/static/298362a5688962c05330623766f70dcf/2021-vals-stromboli-ita.pdf\" target=\"_blank\" >Giallo</a>", "Comportamenti corretti": "<p><a href=\"https://www.protezionecivile.gov.it/it/approfondimento/norme-di-comportamento-stromboli-0/\" target=\"_blank\" >Cosa fare prima/durante/dopo un’esplosione parossistica</a></p>\n<p><a href=\"https://www.protezionecivile.gov.it/it/approfondimento/norme-di-comportamento-stromboli-0/\" target=\"_blank\" >Cosa fare prima/durante/dopo un maremoto</a></p>", "Pianificazione nazionale": "<a href=\"https://rischi.protezionecivile.gov.it/it/vulcanico/vulcani-italia/stromboli/la-pianificazione-nazionale-di-emergenza-stromboli/\" target=\"_blank\" >Il Piano</a> contiene le principali attività che devono essere poste in essere per far fronte all’impatto determinato, sull’Isola di Stromboli, da un evento di maremoto innescato da una frana di rilevanti porzioni del versante della Sciara del Fuoco, che richieda l’attivazione del livello nazionale di protezione civile." }, "geometry": { "type": "Point", "coordinates": [ 15.211630212763412, 38.79279498410714 ] } },
{ "type": "Feature", "properties": { "Vulcano": "<a href=\"https://rischi.protezionecivile.gov.it/it/vulcanico/vulcani-italia/vulcano/\" target=\"_blank\" >Vulcano</a>", "Caratteristiche": "L’isola di Vulcano rappresenta la parte emersa di un vulcano attivo. L’ultima eruzione si è verificata tra il 1888 e il 1890: da allora il vulcano mostra attività di emissione di gas, anche ad alta temperatura, dal cratere di La Fossa e in prossimità del Porto di Levante. Sull’isola, possono anche verificarsi esplosioni freatiche, terremoti, frane e maremoti.", "livello_allerta": "verde", "livello_allerta_link": "<a href=\"https://rischi.protezionecivile.gov.it/static/f2e294052045b305219e246cd1ae895e/vulcano-tabella-sui-livelli-di-allerta.pdf\" target=\"_blank\" >Verde</a>", "Comportamenti corretti": "<a href=\"https://www.protezionecivile.gov.it/it/approfondimento/norme-di-comportamento-vulcano-0/\" target=\"_blank\" >Cosa fare in attenzione/preallarme/allarme</a>", "Pianificazione nazionale": "<a href=\"https://rischi.protezionecivile.gov.it/it/vulcanico/vulcani-italia/vulcano/la-pianificazione-nazionale-di-protezione-civile-il-rischio-vulcanico-sullisola-di-vulcano/\" target=\"_blank\" >Il Piano</a> descrive le principali attività da mettere in campo in caso di attivazione del livello nazionale di coordinamento del Servizio Nazionale della Protezione Civile per far fronte a eventi vulcanici sull'Isola di Vulcano." }, "geometry": { "type": "Point", "coordinates": [ 14.961973407316561, 38.404520453041435 ] } },
{ "type": "Feature", "properties": { "Vulcano": "<a href=\"https://rischi.protezionecivile.gov.it/it/vulcanico/vulcani-italia/vesuvio/\" target=\"_blank\" >Vesuvio</a>", "Caratteristiche": "Il Vesuvio si trova in una zona densamente popolata: per questo, è considerato uno dei vulcani a più alto rischio del mondo. L’ultima eruzione risale al 1944, quando si è verificata attività di tipo effusivo ed esplosivo a bassa energia. Da allora, il vulcano è quiescente ed è caratterizzato da attività fumarolica nel cratere e da bassa sismicità.", "livello_allerta": "verde", "livello_allerta_link": "<a href=\"https://rischi.protezionecivile.gov.it/it/vulcanico/vulcani-italia/vesuvio/\" target=\"_blank\" >Verde</a>", "Comportamenti corretti": "<a href=\"https://www.protezionecivile.gov.it/it/approfondimento/sei-preparato-rischio-vulcanico-al-vesuvio/\" target=\"_blank\" >Cosa fare fin da subito/in attenzione/in preallarme/in allarme/durante l'eruzione</a>", "Pianificazione nazionale": "La <a href=\"https://rischi.protezionecivile.gov.it/it/vulcanico/vulcani-italia/vesuvio/piano-nazionale-di-protezione-civile-il-rischio-vulcanico-al-vesuvio/\" target=\"_blank\" > pianificazione nazionale</a> di protezione civile per il rischio vulcanico al Vesuvio ha definito la <a href=\"https://mappe.protezionecivile.gov.it/it/mappe-e-dashboards-rischi/pianificazione-nazionale-vesuvio/\" target=\"_blank\" >zona rossa e la zona gialla</a>, da non confondere con i livelli di allerta previsti per il vulcano." }, "geometry": { "type": "Point", "coordinates": [ 14.428957703674005, 40.822608648709569 ] } },
{ "type": "Feature", "properties": { "Vulcano": "<a href=\"https://rischi.protezionecivile.gov.it/it/vulcanico/vulcani-italia/ischia/\" target=\"_blank\" >Ischia</a>", "Caratteristiche": "Ischia è un’isola formata da numerosi vulcani. Si sono verificate eruzioni fino al 1302, anno dell'ultimo evento. L'intensa attività idrotermale e la storia eruttiva di Ischia, indicano che l’isola è un’area vulcanica ancora attiva. Attualmente il vulcano è quiescente ma è comunque importante tenerlo costantemente monitorato poiché sull’isola vivono stabilmente 50.000 persone.", "livello_allerta": "non definito", "livello_allerta_link": "In via di definizione. In considerazione dell'elevata popolazione residente sull'isola, si ritiene prioritario definire uno schema di livelli di allerta.", "Comportamenti corretti": "", "Pianificazione nazionale": "" }, "geometry": { "type": "Point", "coordinates": [ 13.919213311651152, 40.729737292962511 ] } },
{ "type": "Feature", "properties": { "Vulcano": "<a href=\"https://rischi.protezionecivile.gov.it/it/vulcanico/vulcani-italia/pantelleria/\" target=\"_blank\" >Pantelleria</a>", "Caratteristiche": "L’isola rappresenta la vetta di un vulcano, alta complessivamente circa 1400m, costituita da lave e depositi piroclastici che emergono dal fondale marino. L'attività eruttiva più recente risale al 1891. Allo stato attuale, sull'isola vulcanica sono presenti manifestazioni di termalismo, rappresentate da fumarole e sorgenti di acque calde.", "livello_allerta": "non definito", "livello_allerta_link": "Attualmente non ancora definiti. Nel percorso di definizione dei livelli di allerta, si è scelto di dare priorità ai vulcani con attività persistente o con segnali di possibile riattivazione o con maggiore pericolosità o esposizione.", "Comportamenti corretti": "", "Pianificazione nazionale": "" }, "geometry": { "type": "Point", "coordinates": [ 11.990825807528999, 36.793646712436185 ] } },
{ "type": "Feature", "properties": { "Vulcano": "<a href=\"https://rischi.protezionecivile.gov.it/it/vulcanico/vulcani-italia/colli-albani/\" target=\"_blank\" >Colli Albani</a>", "Caratteristiche": "I Colli Albani sono la struttura più meridionale della catena vulcanica tirrenica del Lazio. La sua attività eruttiva iniziò 600.000 anni fa e terminò 20.000 anni fa. Attualmente il vulcano è quiescente, ma presenta manifestazioni vulcaniche, quali deformazioni del suolo, attività sismica e fenomeni idrotermali caratterizzati da sorgenti di acqua sulfurea ed emissioni gassose.", "livello_allerta": "non definito", "livello_allerta_link": "Non definiti. L’ultima attività eruttiva del vulcano risale a tempi remoti. Anche se da un punto di vista scientifico non possono essere considerati vulcani estinti, dal punto di vista operativo ai fini di protezione civile, non si ritiene attualmente prioritario definire uno schema di livelli di allerta e una specifica pianificazione dedicata. Il vulcano è comunque monitorato.", "Comportamenti corretti": "", "Pianificazione nazionale": "" }, "geometry": { "type": "Point", "coordinates": [ 12.744093797253791, 41.757054752159235 ] } },
{ "type": "Feature", "properties": { "Vulcano": "<a href=\"https://rischi.protezionecivile.gov.it/it/vulcanico/vulcani-italia/lipari/\" target=\"_blank\" >Lipari</a>", "Caratteristiche": "Lipari è un sistema vulcanico attivo ma quiescente, come dimostrano le eruzioni esplosive ed effusive in epoca tardo romana e medievale. Attualmente è presente una debole attività idrotermale nella parte occidentale dell'isola con fumarole e sorgenti termali che raggiungono temperature superiori ai 50°.", "livello_allerta": "non definito", "livello_allerta_link": "Attualmente non ancora definiti. Nel percorso di definizione dei livelli di allerta, si è scelto di dare priorità ai vulcani con attività persistente o con segnali di possibile riattivazione o con maggiore pericolosità o esposizione.", "Comportamenti corretti": "", "Pianificazione nazionale": "" }, "geometry": { "type": "Point", "coordinates": [ 14.935486543443444, 38.489259903451568 ] } },
{ "type": "Feature", "properties": { "Vulcano": "<a href=\"https://rischi.protezionecivile.gov.it/it/vulcanico/vulcani-italia/panarea/\" target=\"_blank\" >Panarea</a>", "Caratteristiche": "Panarea fa parte di un grande apparato vulcanico, per lo più sommerso, le cui ultime eruzioni risalgono a decine di migliaia di anni fa. Attualmente si trova in stato di quiescenza, sebbene l’isola presenti manifestazioni tipiche di un vulcanismo molto giovane. A Est dell’isola sono infatti attive fumarole sottomarine, dalle quali, nel 2002, si verificarono importanti emissioni gassose.", "livello_allerta": "non definito", "livello_allerta_link": "Non definiti. L’ultima attività eruttiva del vulcano risale a tempi remoti. Anche se da un punto di vista scientifico non possono essere considerati vulcani estinti, dal punto di vista operativo ai fini di protezione civile, non si ritiene attualmente prioritario definire uno schema di livelli di allerta e una specifica pianificazione dedicata. Il vulcano è comunque monitorato.", "Comportamenti corretti": "", "Pianificazione nazionale": "" }, "geometry": { "type": "Point", "coordinates": [ 15.067300934987045, 38.636193882631822 ] } }
]
}
